{"fetched_at":"2026-03-29T16:36:15Z","count":15609,"tles":[{"name":"STARLINK-5278","line1":"1 54164U 22141H   26087.82634930  .00000371  00000+0  41375-4 0  9992","line2":"2 54164  53.2170 278.4208 0001223  85.8187 274.2945 15.08841213188740","category":"Starlink"}]}